NORAD_CAT_ID,OBJECT_NAME,OBJECT_TYPE,EPOCH,MEAN_MOTION,ECCENTRICITY,INCLINATION,RA_OF_ASC_NODE,ARG_OF_PERICENTER,MEAN_ANOMALY,BSTAR,MEAN_MOTION_DOT,MEAN_MOTION_DDOT,TLE_LINE0,TLE_LINE1,TLE_LINE2,SEMIMAJOR_AXIS,PERIOD,APOGEE,PERIGEE,DECAYED
52835.0,STARLINK-4080,PAYLOAD,2022-12-18 01:48:18,15.08846909,0.0002746,53.2181,280.6441,19.5732,340.5365,6.5219e-05,7.4999999999999985e-06,0.0,0 STARLINK-4080,1 52835U 22062F   22352.07521876  .00000750  00000-0  65219-4 0  9994,2 52835  53.2181 280.6441 0002746  19.5732 340.5365 15.08846909 28002,6917.859,95.437,541.624,537.825,0.0
52835.0,STARLINK-4080,PAYLOAD,2022-12-18 12:56:00,15.08848065,0.0002784,53.2179,278.5622,29.3251,330.7897,0.00015213,2.134e-05,0.0,0 STARLINK-4080,1 52835U 22062F   22352.53889478  .00002134  00000-0  15213-3 0  9996,2 52835  53.2179 278.5622 0002784  29.3251 330.7897 15.08848065 28076,6917.856,95.437,541.6469999999998,537.795,0.0
52835.0,STARLINK-4080,PAYLOAD,2022-12-19 00:03:43,15.08836902,0.0002744,53.2181,276.4806,30.1694,329.9456,0.00013353,1.837e-05,0.0,0 STARLINK-4080,1 52835U 22062F   22353.00258252  .00001837  00000-0  13353-3 0  9991,2 52835  53.2181 276.4806 0002744  30.1694 329.9456 15.08836902 28143,6917.89,95.438,541.653,537.857,0.0
52835.0,STARLINK-4080,PAYLOAD,2022-12-19 22:19:06,15.08853633,0.0002592,53.2181,272.3161,33.7531,326.3626,5.321600000000002e-05,5.59e-06,0.0,0 STARLINK-4080,1 52835U 22062F   22353.92993248  .00000559  00000-0  53216-4 0  9996,2 52835  53.2181 272.3161 0002592  33.7531 326.3626 15.08853633 28287,6917.839,95.437,541.497,537.911,0.0
52835.0,STARLINK-4080,PAYLOAD,2022-12-20 04:40:38,15.0885616,0.0002766,53.2179,271.1276,26.7076,333.4058,2.1886e-05,6e-07,0.0,0 STARLINK-4080,1 52835U 22062F   22354.19489085  .00000060  00000-0  21886-4 0  9990,2 52835  53.2179 271.1276 0002766  26.7076 333.4058 15.08856160 28328,6917.831,95.437,541.609,537.783,0.0
52835.0,STARLINK-4080,PAYLOAD,2022-12-21 04:31:26,15.08828966,0.0002796,53.218,266.6672,24.105,336.0072,-0.00011967,-2.192e-05,0.0,0 STARLINK-4080,1 52835U 22062F   22355.18850670 -.00002192  00000-0 -11967-3 0  9990,2 52835  53.2180 266.6672 0002796  24.1050 336.0072 15.08828966 28470,6917.9140000000025,95.438,541.7130000000002,537.845,0.0
52835.0,STARLINK-4080,PAYLOAD,2022-12-21 10:53:00,15.08823225,0.0002844,53.2178,265.4777,23.9479,336.1645,-0.00017077,-3.004e-05,0.0,0 STARLINK-4080,1 52835U 22062F   22355.45347345 -.00003004  00000-0 -17077-3 0  9991,2 52835  53.2178 265.4777 0002844  23.9479 336.1645 15.08823225 28511,6917.932,95.439,541.764,537.8290000000002,0.0
52835.0,STARLINK-4080,PAYLOAD,2022-12-22 04:22:13,15.08836763,0.000281,53.2175,262.2066,25.5258,334.5873,-1.6189e-06,-3.14e-06,0.0,0 STARLINK-4080,1 52835U 22062F   22356.18210481 -.00000314  00000-0 -16189-5 0  9998,2 52835  53.2175 262.2066 0002810  25.5258 334.5873 15.08836763 28628,6917.89,95.438,541.6990000000002,537.811,0.0
52835.0,STARLINK-4080,PAYLOAD,2022-12-22 10:43:45,15.08843321,0.0002823,53.2173,261.0174,25.5729,334.5403,3.3597e-05,2.46e-06,0.0,0 STARLINK-4080,1 52835U 22062F   22356.44706005  .00000246  00000-0  33597-4 0  9992,2 52835  53.2173 261.0174 0002823  25.5729 334.5403 15.08843321 28661,6917.87,95.437,541.688,537.7819999999998,0.0
52835.0,STARLINK-4080,PAYLOAD,2022-12-23 10:34:34,15.08822624,0.0002841,53.217,256.5575,27.3287,332.7855,6.4464e-05,7.37e-06,0.0,0 STARLINK-4080,1 52835U 22062F   22357.44067705  .00000737  00000-0  64464-4 0  9992,2 52835  53.2170 256.5575 0002841  27.3287 332.7855 15.08822624 28812,6917.934,95.439,541.764,537.8330000000002,0.0
52835.0,STARLINK-4080,PAYLOAD,2022-12-24 02:28:25,15.08841209,0.0002843,53.2167,253.5839,27.1588,332.9553,0.00016969,2.413e-05,0.0,0 STARLINK-4080,1 52835U 22062F   22358.10307218  .00002413  00000-0  16969-3 0  9991,2 52835  53.2167 253.5839 0002843  27.1588 332.9553 15.08841209 28910,6917.877,95.437,541.7080000000002,537.775,0.0
52835.0,STARLINK-4080,PAYLOAD,2022-12-24 10:25:20,15.08847286,0.000287,53.2165,252.0969,26.8126,333.3014,0.00022898,3.358e-05,0.0,0 STARLINK-4080,1 52835U 22062F   22358.43426917  .00003358  00000-0  22898-3 0  9992,2 52835  53.2165 252.0969 0002870  26.8126 333.3014 15.08847286 28963,6917.858,95.437,541.7090000000002,537.738,0.0
52835.0,STARLINK-4080,PAYLOAD,2022-12-24 16:46:53,15.08846274,0.0002872,53.2165,250.9076,28.0979,332.0168,0.00017186,2.448e-05,0.0,0 STARLINK-4080,1 52835U 22062F   22358.69922954  .00002448  00000-0  17186-3 0  9995,2 52835  53.2165 250.9076 0002872  28.0979 332.0168 15.08846274 29009,6917.861,95.437,541.7130000000002,537.739,0.0
52835.0,STARLINK-4080,PAYLOAD,2022-12-25 10:16:07,15.08846221,0.0002868,53.216,247.6362,28.2195,331.8952,0.00020084,2.9100000000000013e-05,0.0,0 STARLINK-4080,1 52835U 22062F   22359.42786955  .00002910  00000-0  20084-3 0  9991,2 52835  53.2160 247.6362 0002868  28.2195 331.8952 15.08846221 29114,6917.861,95.437,541.71,537.742,0.0
52835.0,STARLINK-4080,PAYLOAD,2022-12-25 19:48:27,15.08833033,0.0002475,53.2167,245.8502,31.6646,328.4494,-9.878e-05,-1.86e-05,0.0,0 STARLINK-4080,1 52835U 22062F   22359.82531347 -.00001860  00000-0 -98780-4 0  9992,2 52835  53.2167 245.8502 0002475  31.6646 328.4494 15.08833033 29176,6917.901999999999,95.438,541.479,538.055,0.0
52835.0,STARLINK-4080,PAYLOAD,2022-12-26 02:10:00,15.08829388,0.0002893,53.2183,244.6636,30.1775,329.9384,-7.5281e-05,-1.486e-05,0.0,0 STARLINK-4080,1 52835U 22062F   22360.09028434 -.00001486  00000-0 -75281-4 0  9996,2 52835  53.2183 244.6636 0002893  30.1775 329.9384 15.08829388 29217,6917.913000000001,95.438,541.779,537.776,0.0
52835.0,STARLINK-4080,PAYLOAD,2022-12-26 10:06:55,15.08838443,0.0002888,53.2174,243.1763,28.677,331.4380000000001,-3.064e-05,-7.76e-06,0.0,0 STARLINK-4080,1 52835U 22062F   22360.42147812 -.00000776  00000-0 -30640-4 0  9996,2 52835  53.2174 243.1763 0002888  28.6770 331.4380 15.08838443 29264,6917.885,95.438,541.748,537.752,0.0
52835.0,STARLINK-4080,PAYLOAD,2022-12-26 19:39:14,15.08842695,0.0002894,53.2171,241.3926,25.6031,334.5104,7.1203e-05,8.45e-06,0.0,0 STARLINK-4080,1 52835U 22062F   22360.81891221  .00000845  00000-0  71203-4 0  9994,2 52835  53.2171 241.3926 0002894  25.6031 334.5104 15.08842695 29325,6917.871999999999,95.437,541.739,537.735,0.0
52835.0,STARLINK-4080,PAYLOAD,2022-12-27 02:00:46,15.088516,0.0002872,53.2172,240.2024,27.5781,332.5363,0.00011577,1.555e-05,0.0,0 STARLINK-4080,1 52835U 22062F   22361.08386599  .00001555  00000-0  11577-3 0  9997,2 52835  53.2172 240.2024 0002872  27.5781 332.5363 15.08851600 29367,6917.845,95.437,541.697,537.7230000000002,0.0
52835.0,STARLINK-4080,PAYLOAD,2022-12-28 01:51:32,15.08849429,0.0002876,53.2174,235.7421,27.1586,332.9557,0.0002557,3.785e-05,0.0,0 STARLINK-4080,1 52835U 22062F   22362.07746034  .00003785  00000-0  25570-3 0  9996,2 52835  53.2174 235.7421 0002876  27.1586 332.9557 15.08849429 29514,6917.852,95.437,541.706,537.727,0.0
52835.0,STARLINK-4080,PAYLOAD,2022-12-29 01:42:20,15.08842419,0.0003739,53.216,231.2824,32.6269,327.4954,-0.00026056,-4.434e-05,0.0,0 STARLINK-4080,1 52835U 22062F   22363.07106944 -.00004434  00000-0 -26056-3 0  9991,2 52835  53.2160 231.2824 0003739  32.6269 327.4954 15.08842419 29663,6917.873000000001,95.437,542.325,537.151,0.0
52835.0,STARLINK-4080,PAYLOAD,2022-12-29 08:03:53,15.08828265,0.0003582,53.2158,230.0904,28.4043,331.7144,-0.00025163,-4.291e-05,0.0,0 STARLINK-4080,1 52835U 22062F   22363.33603660 -.00004291  00000-0 -25163-3 0  9996,2 52835  53.2158 230.0904 0003582  28.4043 331.7144 15.08828265 29702,6917.916,95.438,542.259,537.303,0.0
52835.0,STARLINK-4080,PAYLOAD,2022-12-30 07:54:41,15.08836531,0.0002989,53.2161,225.6311,29.1858,330.93,-6.7931e-05,-1.3699999999999998e-05,0.0,0 STARLINK-4080,1 52835U 22062F   22364.32964146 -.00001370  00000-0 -67931-4 0  9990,2 52835  53.2161 225.6311 0002989  29.1858 330.9300 15.08836531 29856,6917.891,95.438,541.8240000000002,537.688,0.0
52835.0,STARLINK-4080,PAYLOAD,2022-12-31 07:45:28,15.08848643,0.0002935,53.2155,221.1713,28.2321,331.8830000000001,0.0004616,7.068e-05,0.0,0 STARLINK-4080,1 52835U 22062F   22365.32324084  .00007068  00000-0  46160-3 0  9990,2 52835  53.2155 221.1713 0002935  28.2321 331.8830 15.08848643 30006,6917.854,95.437,541.749,537.689,0.0
52835.0,STARLINK-4080,PAYLOAD,2022-12-31 14:07:00,15.08854214,0.0002938,53.2157,219.9819,28.6912,331.4241,0.000558,8.607e-05,0.0,0 STARLINK-4080,1 52835U 22062F   22365.58819908  .00008607  00000-0  55800-3 0  9993,2 52835  53.2157 219.9819 0002938  28.6912 331.4241 15.08854214 30040,6917.837,95.437,541.734,537.669,0.0
52835.0,STARLINK-4080,PAYLOAD,2022-12-31 20:28:32,15.08853132,0.0002679,53.2162,218.7921,23.4621,336.6493,0.0003567,5.395e-05,0.0,0 STARLINK-4080,1 52835U 22062F   22365.85315724  .00005395  00000-0  35670-3 0  9994,2 52835  53.2162 218.7921 0002679  23.4621 336.6493 15.08853132 30087,6917.84,95.437,541.559,537.852,0.0
52835.0,STARLINK-4080,PAYLOAD,2023-01-01 07:36:14,15.08843987,0.0003086,53.2157,216.7114,29.1578,330.9586,5.8847e-05,6.48e-06,0.0,0 STARLINK-4080,1 52835U 22062F   23001.31683986  .00000648  00000-0  58847-4 0  9999,2 52835  53.2157 216.7114 0003086  29.1578 330.9586 15.08843987 30155,6917.868,95.437,541.868,537.5980000000002,0.0
52835.0,STARLINK-4080,PAYLOAD,2023-01-01 13:57:47,15.08835237,0.0003198999999999,53.215,215.5224,34.5749,325.5451,-0.000222,-3.82e-05,0.0,0 STARLINK-4080,1 52835U 22062F   23001.58180146 -.00003820  00000-0 -22200-3 0  9998,2 52835  53.2150 215.5224 0003199  34.5749 325.5451 15.08835237 30196,6917.895,95.438,541.9730000000002,537.547,0.0
52835.0,STARLINK-4080,PAYLOAD,2023-01-01 20:19:20,15.08837213,0.0002979,53.2153,214.3321,29.108,331.0078,-6.5447e-06,-3.93e-06,0.0,0 STARLINK-4080,1 52835U 22062F   23001.84676409 -.00000393  00000-0 -65447-5 0  9993,2 52835  53.2153 214.3321 0002979  29.1080 331.0078 15.08837213 30235,6917.889,95.438,541.815,537.693,0.0
